ONEWEB-0628             
1 55169U 23004AF  25217.09604075  .00000230  00000+0  60410-3 0  9991
2 55169  87.8863  53.4799 0001653 117.0746 243.0551 13.12441492126578
ONEWEB-0629             
1 55170U 23004AG  25216.83935043  .00000006  00000+0 -17815-4 0  9990
2 55170  87.9039  68.8416 0002037  92.7453 267.3912 13.17650152125921
ONEWEB-0631             
1 55171U 23004AH  25216.77199887  .00000030  00000+0  44131-4 0  9999
2 55171  87.9128  38.2807 0001258  86.1459 273.9817 13.18687026127978
ONEWEB-0709             
1 55172U 23004AJ  25217.18310452 -.00000221  00000+0 -65846-3 0  9998
2 55172  87.8798  84.0760 0001462  50.0499 310.0757 13.11414530124467
ONEWEB-0710             
1 55173U 23004AK  25216.92963083  .00000056  00000+0  11023-3 0  9996
2 55173  87.9031  68.8225 0001670  89.8347 270.2976 13.17647607125930
ONEWEB-0711             
1 55174U 23004AL  25216.92540448  .00000461  00000+0  12639-2 0  9996
2 55174  87.8797  84.0953 0001484 108.4589 251.6700 13.11417707124382
ONEWEB-0713             
1 55175U 23004AM  25217.40183349  .00000296  00000+0  79998-3 0  9992
2 55175  87.8793  84.0078 0001601  89.8772 270.2539 13.11414266124434
ONEWEB-0715             
1 55176U 23004AN  25216.93896656  .00000238  00000+0  63453-3 0  9997
2 55176  87.8796  84.1008 0001450  72.0571 288.0715 13.11414805124415
